FALCONSAT-10            
1 58291U 23174AM  26068.70247784  .00006748  00000+0  25969-3 0  9991
2 58291  97.3865 145.7938 0008932 169.5942 190.5483 15.26670596129582
STARLINK-34162          
1 64018U 25101AA  26067.83160717  .00039654  00000+0  14421-2 0  9992
2 64018  43.0011   2.8362 0001048 235.4706 124.6047 15.27596608 46925
